NOT correct mapping: maximumElevation - areaCode
/Users/emiliakacprzak/Code/papers/semantification/benchmark_labels_new/mediumSample/medium15/dbo_maximumElevation-420-medium-15var.csv
[(u'areaCode', 0.0), (u'maximumElevation', 0.009399999999999955), (u'elevation', 0.031818181818181815), (u'PopulatedPlace/populationDensity', 0.24594170012218533), (u'populationDensity', 0.24594170012218533), (u'minimumElevation', 0.24768518518518517), (u'utcOffset', 0.3333333333333333), (u'postalCode', 0.3987012987012987), (u'PopulatedPlace/areaTotal', 0.64768), (u'populationTotal', 0.8469713071200851), (u'longm', 0.91605061601602877), (u'longd', 0.94653839843401211), (u'latm', 0.94874340397496648), (u'longs', 0.97863494616783142), (u'lats', 0.97863494616783142), (u'latd', 0.98091797166228034), (u'o/wgs84_pos#long', 0.98203037843621688), (u'PopulatedPlace/areaUrban', 0.9946666666666667), (u'o/wgs84_pos#lat', 0.99708672428738376), (u'populationBlank1Household', 0.99955113467751466), (u'areaTotal', 0.99955113467751466), (u'areaLand', 0.99955113467751466), (u'areaUrban', 0.9998125), (u'populationAsOf', 0.99993606257379697)]
NOT correct mapping: areaTotal - numberOfIslands
/Users/emiliakacprzak/Code/papers/semantification/benchmark_labels_new/mediumSample/medium15/dbo_areaTotal-284-medium-15var.csv
[(u'numberOfIslands', 0), (u'PopulatedPlace/areaTotal', 0), (u'populationTotal', 0), (u'areaTotal', 0), (u'length', 0.9978366997914049), (u'width', 0.9998170816976245), (u'elevation', 0.9999331642167237), (u'maximumElevation', 0.9999811544412386), (u'long', 0.99999999307434118), (u'lat', 0.9999999989190449), (u'PopulatedPlace/populationDensity', 0.9999999992941111), (u'populationDensity', 0.9999999992941111), (u'o/wgs84_pos#lat', 1.0), (u'o/wgs84_pos#long', 1.0)]
NOT correct mapping: areaLand - areaTotal
/Users/emiliakacprzak/Code/papers/semantification/benchmark_labels_new/mediumSample/medium15/dbo_areaLand-249-medium-15var.csv
[(u'areaTotal', 0.01806699427008423), (u'areaLand', 0.022676731481010133), (u'areaWater', 0.8687434939395553), (u'populationTotal', 0.9993958759196466), (u'populationRange', 0.99999715914699994), (u'censusYear', 0.9999979201859048), (u'foundingYear', 0.9999981095421135), (u'PopulatedPlace/areaTotal', 0.9999988007930746), (u'maximumElevation', 0.9999993238521089), (u'populationDensity', 0.9999998508459681), (u'PopulatedPlace/populationDensity', 0.9999998508461421), (u'currentNumber', 0.99999994910911838), (u'utcOffset', 0.9999999953928718), (u'percentageOfAreaWater', 0.9999999980349343), (u'area', 1.0)]
top 1 correctly labelled: 136
top 3 correctly labelled: 161
top X correctly labelled: 166
total: 166
Size: large Deviation: 15
all datasets: 183
NOT correct mapping: populationDensity - PopulatedPlace/populationDensity
/Users/emiliakacprzak/Code/papers/semantification/benchmark_labels_new/largeSample/large15/dbo_populationDensity-404-large-15var.csv
[(u'PopulatedPlace/populationDensity', 0.0), (u'populationDensity', 0.0), (u'utcOffset', 0.0), (u'populationTotal', 0.25892857142857145), (u'areaCode', 0.4362745098039216), (u'elevation', 0.5897435897435898), (u'PopulatedPlace/areaTotal', 0.7835750232385663), (u'meanAnomaly', 0.83162399741396997), (u'argPeri', 0.90285235220293081), (u'temperature', 0.9868618984984654), (u'ascNode', 0.98781588755401373), (u'areaTotal', 0.9926125), (u'inclination', 0.99735201129940942), (u'postalCode', 0.9977600447991041), (u'radius', 0.99843412424824995), (u'yearLeader', 0.99979546696990773), (u'areaLand', 0.9998506666666667), (u'tisserand', 0.99988496911572911), (u'areaWater', 0.9999172637466285), (u'absoluteMagnitude', 0.99995294834831139), (u'averageSpeed', 0.99997888848036842), (u'uncertainty', 0.99999426639703604), (u'mass', 0.99999968888141821), (u'rotationPeriod', 0.9999999459181701), (u'orbitalPeriod', 0.99999999478403956), (u'periapsis', 0.9999999950523546), (u'apoapsis', 0.9999999950523546), (u'eccentricity', 0.99999999994503519), (u'o/wgs84_pos#lat', 1.0)]
NOT correct mapping: serviceEndYear - serviceStartYear
/Users/emiliakacprzak/Code/papers/semantification/benchmark_labels_new/largeSample/large15/dbo_serviceEndYear-39-large-15var.csv
[(u'serviceStartYear', 0.007209062821833162), (u'serviceEndYear', 0.009249743062692703), (u'birthDate', 0.34230293140408952), (u'term', 0.89717726622001859), (u'surge', 0.97432288719630611), (u'years', 0.98748487565758891), (u'o/wgs84_pos#lat', 0.99993606257379697), (u'o/wgs84_pos#long', 0.99993606257379697), (u'children', 0.99999999610356038), (u'class', 0.99999999998008215)]
NOT correct mapping: activeYearsStartYear - activeYearsEndYear
/Users/emiliakacprzak/Code/papers/semantification/benchmark_labels_new/largeSample/large15/dbo_activeYearsStartYear-160-large-15var.csv
[(u'activeYearsEndYear', 0.024822695035460994), (u'activeYearsStartYear', 0.031408308004052685), (u'birthYear', 0.05116514690982776), (u'deathYear', 0.09332732191163211), (u'spouse', 0.94875440512982145), (u'imdbId', 0.993158119929006), (u'active', 0.99334438799521163), (u'deathDate', 0.99950839942574166), (u'year', 0.99958189463979075), (u'id', 0.99999251763695374), (u'numberOfFilms', 0.99999712507834748), (u'colwidth', 0.99999752370900363), (u'date', 0.99999900311122025), (u'width', 0.99999999404968853), (u'children', 0.99999999991763522), (u'birthDate', 0.99999999997573008), (u'years', 0.99999999999496847), (u'height', 0.99999999999981537), (u'imagesize', 1.0), (u'imageSize', 1.0)]
NOT correct mapping: draftYear - activeYearsEndYear
/Users/emiliakacprzak/Code/papers/semantification/benchmark_labels_new/largeSample/large15/dbo_draftYear-335-large-15var.csv
[(u'activeYearsEndYear', 0.08999543170397442), (u'activeYearsStartYear', 0.09319323892188214), (u'draftYear', 0.09319323892188214), (u'years', 0.37741433496262144), (u'manageryears', 0.42589000181088377), (u'draftPick', 0.8743718592964824), (u'Person/weight', 0.9523604743083004), (u'weight', 0.979009026948095), (u'caps', 0.97949601829520572), (u'totalcaps', 0.98257233803331001), (u'totalgoals', 0.98257233803331001), (u'height', 0.98869152960331796), (u'draftRound', 0.9954317039744175)]
NOT correct mapping: height - Person/height
/Users/emiliakacprzak/Code/papers/semantification/benchmark_labels_new/largeSample/large15/dbo_height-238-large-15var.csv
[(u'Person/height', 0), (u'height', 0), (u'shoeSize', 0.975609756097561), (u'Person/weight', 0.9818181818181818), (u'weight', 0.9999818181818182), (u'shoesize', 0.9999967199092693), (u'imdbId', 0.9999995138702539), (u'dressSize', 0.99999999999466371), (u'measurements', 0.99999999999985867)]
NOT correct mapping: deathYear - birthYear
/Users/emiliakacprzak/Code/papers/semantification/benchmark_labels_new/largeSample/large15/dbo_deathYear-208-large-15var.csv
[(u'birthYear', 0.0031762837480148226), (u'activeYearsEndYear', 0.012658227848101266), (u'deathYear', 0.012658227848101266), (u'activeYearsStartYear', 0.014606155451225874), (u'imdbId', 0.9913816757714086), (u'imageSize', 0.99997543878332251), (u'children', 0.99999999114953175), (u'imagesize', 0.99999999114953175)]
NOT correct mapping: serviceStartYear - serviceEndYear
/Users/emiliakacprzak/Code/papers/semantification/benchmark_labels_new/largeSample/large15/dbo_serviceStartYear-426-large-15var.csv
[(u'serviceEndYear', 0.00631911532385466), (u'serviceStartYear', 0.00631911532385466), (u'deathDate', 0.92967058152248849), (u'end', 0.95558811583816705), (u'years', 0.99217879695532885), (u'birthDate', 0.99671461388785776), (u'imageSize', 0.99984438146276899), (u'rows', 0.99997123702502488), (u'children', 0.99999979932824368), (u'imagesize', 0.9999998986292381)]
NOT correct mapping: displacement - runtime
/Users/emiliakacprzak/Code/papers/semantification/benchmark_labels_new/largeSample/large15/dbo_displacement-372-large-15var.csv
[(u'runtime', 0.98528399439191039), (u'dvrv', 0.99531519610180863), (u'length', 0.99531519610180863), (u'totalv', 0.99735274265051965), (u'numberOfSeasons', 0.99870025601461432), (u'numberOfEpisodes', 0.99983098937424286), (u'cylinderBore', 1.0), (u'torqueOutput', 1.0), (u'pistonStroke', 1.0), (u'productionStartYear', 1.0), (u'displacement', 1.0), (u'Engine/torqueOutput', 1.0), (u'Engine/powerOutput', 1.0), (u'Engine/displacement', 1.0), (u'Engine/cylinderBore', 1.0), (u'powerOutput', 1.0), (u'productionEndYear', 1.0), (u'Engine/pistonStroke', 1.0)]
NOT correct mapping: draftYear - activeYearsStartYear
/Users/emiliakacprzak/Code/papers/semantification/benchmark_labels_new/largeSample/large15/dbo_draftYear-333-large-15var.csv
[(u'activeYearsStartYear', 0.0014895729890764648), (u'draftYear', 0.0014895729890764648), (u'activeYearsEndYear', 0.012556504269211451), (u'Person/weight', 0.9443453273998729), (u'weight', 0.9757934314319058), (u'pb', 0.99167326011595791), (u'years', 0.99791702124981307), (u'height', 0.9988212333121425), (u'imageSize', 0.99999999468592704), (u'heightIn', 0.99999999930517613), (u'heightFt', 0.99999999930517613)]
NOT correct mapping: numberOfEpisodes - Work/runtime
/Users/emiliakacprzak/Code/papers/semantification/benchmark_labels_new/largeSample/large15/dbo_numberOfEpisodes-223-large-15var.csv
[(u'Work/runtime', 0.024390243902439025), (u'numberOfEpisodes', 0.125), (u'meps', 0.31768953192217531), (u'o/wgs84_pos#lat', 0.34378502482042261), (u'colwidth', 0.34912716829599133), (u'2p', 0.50641646381313532), (u'o/wgs84_pos#long', 0.70455556187387269), (u'id', 0.82530863153429057), (u'numberOfSeasons', 0.8292682926829268), (u'totalPopulation', 0.96646057171856192), (u'dateEvent', 0.96737834834797887), (u'passedvote', 0.97108293745460639), (u'graySubject', 0.97108293745460639), (u'imageWidth', 0.97108293745460639), (u'date', 0.97108293745460639), (u'logo', 0.97108293745460639), (u'grayPage', 0.97373923973533982), (u'runtime', 0.97572879207290797), (u'imageSize', 0.98605011602483084), (u'pop', 0.98709260544849509)]
NOT correct mapping: foundingYear - censusYear
/Users/emiliakacprzak/Code/papers/semantification/benchmark_labels_new/largeSample/large15/dbo_foundingYear-291-large-15var.csv
